STARLINK-2153
1 28009C 21024AJ  21325.16617286  .00002085  00000-0  13970-3 0  3251
2 28009  53.0522 162.4702 0002056  78.3277 234.6981 15.06391849    19
